{
    "links": {
        "self": "http://www.neowsapp.com/rest/v1/neo/54087844?api_key=iIulBulltgU6a56xZRHN4H3l9WmuAYTsLGpBGhQ2"
    },
    "id": "54087844",
    "neo_reference_id": "54087844",
    "name": "(2020 VQ5)",
    "designation": "2020 VQ5",
    "nasa_jpl_url": "http://ssd.jpl.nasa.gov/sbdb.cgi?sstr=54087844",
    "absolute_magnitude_h": 24.751,
    "estimated_diameter": {
        "kilometers": {
            "estimated_diameter_min": 0.0298095196,
            "estimated_diameter_max": 0.0666561121
        },
        "meters": {
            "estimated_diameter_min": 29.8095195628,
            "estimated_diameter_max": 66.6561121191
        },
        "miles": {
            "estimated_diameter_min": 0.018522771,
            "estimated_diameter_max": 0.041418175
        },
        "feet": {
            "estimated_diameter_min": 97.8002641626,
            "estimated_diameter_max": 218.6880388849
        }
    },
    "is_potentially_hazardous_asteroid": false,
    "close_approach_data": [
        {
            "close_approach_date": "2020-12-01",
            "close_approach_date_full": "2020-Dec-01 20:13",
            "epoch_date_close_approach": 1606853580000,
            "relative_velocity": {
                "kilometers_per_second": "11.9331709531",
                "kilometers_per_hour": "42959.4154313051",
                "miles_per_hour": "26693.3101050795"
            },
            "miss_distance": {
                "astronomical": "0.050477126",
                "lunar": "19.635602014",
                "kilometers": "7551270.53332162",
                "miles": "4692141.931893556"
            },
            "orbiting_body": "Earth"
        }
    ],
    "orbital_data": {
        "orbit_id": "6",
        "orbit_determination_date": "2020-11-26 05:21:10",
        "first_observation_date": "2020-11-14",
        "last_observation_date": "2020-11-24",
        "data_arc_in_days": 10,
        "observations_used": 47,
        "orbit_uncertainty": "8",
        "minimum_orbit_intersection": ".0390152",
        "jupiter_tisserand_invariant": "3.477",
        "epoch_osculation": "2459171.5",
        "eccentricity": ".5911945138006245",
        "semi_major_axis": "2.118752234578879",
        "inclination": "7.360995029314896",
        "ascending_node_longitude": "229.2727104794442",
        "orbital_period": "1126.467554327294",
        "perihelion_distance": ".8661575373930318",
        "perihelion_argument": "246.968871840459",
        "aphelion_distance": "3.371346931764726",
        "perihelion_time": "2459219.390705205996",
        "mean_anomaly": "344.6949396740908",
        "mean_motion": ".319583106159667",
        "equinox": "J2000",
        "orbit_class": {
            "orbit_class_type": "APO",
            "orbit_class_description": "Near-Earth asteroid orbits which cross the Earth’s orbit similar to that of 1862 Apollo",
            "orbit_class_range": "a (semi-major axis) > 1.0 AU; q (perihelion) < 1.017 AU"
        }
    },
    "is_sentry_object": false
}